#dP2020  9  4  0  0  0.00000000      96 __u+U ITR00 FIT  IAC
## 2121 432000.00000000   900.00000000 59096 0.0000000000000
+  114   C06C07C08C09C10C11C12C13C14C16C19C20C21C22C23C24C25
+        C26C27C28C29C30C32C33C34C35C36C37C38C39C40C43C44C45
+        C46E01E02E03E04E05E07E08E09E11E12E13E14E15E18E19E21
+        E24E25E26E27E30E31E33E36G01G02G03G04G05G06G07G08G09
+        G10G11G12G13G15G16G17G18G19G20G21G22G24G25G26G27G28
+        G29G30G31G32J02J03R01R02R03R04R05R07R08R09R11R12R13
+        R14R15R16R17R18R19R20R21R22R23R24R26  0  0  0  0  0
++         9  8 10  8  7  8  6  9  7  7  5  6  6  8  7  7  8
++         6  8  7  6  7  9  7  7  6  7  8  4  5 15  8  7  8
++        13  5  6  5  7  6  5  6  6  6  5  5  5  5  6  7  7
++         5  6  7  6  6  4  7  6  5  5  5  7  7  5  6  7  5
++         6  5  6  6  6  5  5  5  5  6  6  5  5  5  5  6  6
++         6  4  6  6  9  6  7  7  7  7  6  7  8  0  6  6  6
++         5  7  7  6  7  6  6  6  6  5  4  7  0  0  0  0  0
%c M  cc GPS ccc cccc cccc cccc cccc ccccc ccccc ccccc ccccc
%c cc cc ccc ccc cccc cccc cccc cccc ccccc ccccc ccccc ccccc
%f  0.0000000  0.000000000  0.00000000000  0.000000000000000
%f  0.0000000  0.000000000  0.00000000000  0.000000000000000
%i    0    0    0    0      0      0      0      0         0
%i    0    0    0    0      0      0      0      0         0
/* INFORMATION & ANALYSIS CENTER (IAC)      ULTRA-RAPID DATA
/* S/V CLOCKS ARE ALIGNED TO GNSS TIME                      
/* G:C1WC2W R:C1PC2P E:C1XC5X C:C2IC6I J:C1CC2S             
/* PCV:IGS14_2118 OL/AL:FES2004  NONE     YN ORB:CoN CLK:CoN
*  2020 09 04 14 15  0.00000000
PC06 -22568.075945  25216.737460  25282.831096    233.547405
PC07 -15352.238153  38075.995337  10974.583522     16.791345
PC08  -6729.098902  22158.111773 -35093.550106   -498.664941
PC09  -7720.441787  25739.552581  32659.337102    788.380560
PC10  -5565.333203  42006.547904  -1537.009809   -194.773592
PC11  25424.443019  -7138.371418   8983.331716   -599.243884
PC12  26033.343013   4350.030162  -8973.676266    495.974518
PC13   6485.278035  30364.895396 -28311.029799    630.441777
PC14  18500.904984 -14998.412736  14518.209017    932.808503
PC16 -18808.571083  25624.088846  27684.693220   -588.847357
PC19 -15576.711820  22290.866583  -6286.782067    534.156189
PC20 -18484.773793   6713.995208 -19799.925861   -839.813656
PC21  10428.312504  13590.156568  22045.941024   -673.206630
PC22  -3628.465637  25318.285492  11196.696591   -764.771571
PC23  -6134.514538 -24539.395940 -11767.552806   -856.663736
PC24  19629.302269   4858.706767 -19217.770111   -732.327881
PC25   8869.824771 -14668.134099 -22021.663333   -745.177048
PC26  18823.294251  19729.042527  -5856.830547    817.776759
PC27 -20035.251266 -10322.006697  16430.179804    393.261217
PC28   -404.459303 -15855.922366  22960.636598   -174.361978
PC29 -18923.464960  12829.591020 -16012.906490    279.257140
PC30 -27816.700376   2022.031338    679.276757    370.946195
PC32 -10539.701047 -13498.766317 -22021.407661   -895.760935
PC33  15514.515332 -22286.482993   6388.956980   -795.162613
PC34  27820.832045  -2288.252374   -161.471077   -862.402053
PC35    710.136738  15914.682484 -22915.697532   -669.996278
PC36  -9422.788028  14234.744706  22110.218006   -925.112687
PC37 -18125.670757 -20579.916461   5225.053726   -924.173441
PC38  -5294.353459  25712.575023 -32975.165412 999999.999999
PC39 -17671.909057  26793.439855  27289.983914     21.877335
PC40 -11431.435683  40694.866262    466.608023 999999.999999
PC43  19307.114645 -12644.345033  15692.681169   -357.736095
PC44  20237.405516   9862.671407 -16513.709124   -237.201550
PC45   6251.260123  24490.129430  11827.686036    222.172161
PC46 -19416.108439  -4236.668037  19620.171419 999999.999999
PE01 -15461.357862 -15985.416643  19541.112534   -933.778145
PE02  15480.012204  15886.834962 -19588.857101    159.228297
PE03  18838.849165   5206.083633  22223.743054   -339.178004
PE04 -25542.300348  11795.253288  -9203.277126   -600.296773
PE05   1006.096274  19362.101523  22369.399284   -348.927815
PE07  17266.128804 -22095.701810  -9453.997444   -431.707800
PE08  25418.979368 -12172.212736   9024.783763   6125.411604
PE09 -17091.970108  22191.051925   9603.254009   5941.758360
PE11  -9552.215486  13584.814197 -24513.513548   5268.089932
PE12 -25748.493943    285.727248 -14595.066309   5622.168720
PE13   9750.678736 -13409.764510  24519.590693    403.458325
PE14  26314.474874  -5178.378539  -5366.270709  -1144.055829
PE15  25645.388470   -479.518415  14769.674358    853.787230
PE18 -23164.929851  16764.369697  -9740.255687  -1250.590942
PE19 -17201.349908  -6980.443722 -23052.610977     70.124889
PE21  -6583.779754 -28625.970679   3642.463074   -619.580672
PE24  -6793.379557  24577.640262  15016.956197   5261.698822
PE25   6474.245994  28675.532323  -3469.823732   -516.112501
PE26 -12255.311774 -18646.209979  19454.596210   2764.889585
PE27   6381.580932 -24870.395323 -14716.544485    141.226537
PE30  15741.730163  -5862.799220 -24371.868150   3611.441092
PE31 -15539.413056   6526.038010  24348.582083   -473.937542
PE33 -26469.485855 -12736.004935   3662.963413   -463.023853
PE36  11856.549252  18460.150881 -19868.657647    511.870007
PG01  22138.314649  14877.360475   1675.433148     35.982370
PG02  -8282.175106 -19189.382261  17053.102981   -511.807483
PG03  12929.451570  11150.603569  20295.166753   -289.623057
PG04  21053.405198   3372.828916  15868.885842   -132.217134
PG05  -2718.254223 -25581.915632  -6340.067044    -20.342696
PG06   6018.005622 -13781.476428  21939.415651   -322.563696
PG07  21298.901914   1811.647400 -15743.460419   -365.226961
PG08  12215.172968  10361.529165 -21220.493389    -46.788337
PG09  24920.863611  -6952.109839   5988.338862   -280.971837
PG10 -11632.752462  19140.567571 -13989.926098   -445.840768
PG11  19878.265948  12697.527287 -12342.309046   -173.683114
PG12 -11254.549592 -13343.773916  19829.930208     71.642428
PG13  -2664.940605 -14939.422896 -21917.716081     42.128172
PG15 -14294.141216  -9533.179957 -20664.735608   -205.965066
PG16   1428.156846  24751.199127  -9089.687875   -204.655498
PG17  19195.028464 -15041.927273  10896.255808    321.058156
PG18 -20510.963345   -875.732356 -16889.568095    283.807084
PG19  13876.406201 -15757.421043  15935.024488   -109.362573
PG20 -14909.646126   7873.784323 -20550.894255    526.844088
PG21   5179.066615  18253.106557 -17989.958341     43.403018
PG22  11437.458899  18355.320547  15715.821261   -757.811461
PG24 -21988.803367 -15204.716553  -1541.319383    -18.123060
PG25 -15038.825216   -574.204783  21641.653642     44.440844
PG26  -5219.835678  25446.335204   4878.297180    273.107503
PG27    190.582785  15764.292574 -21464.490455   -387.642198
PG28  12237.105820 -20041.919971 -11973.091902    682.398220
PG29 -24807.504168   2632.588448   9144.913466   -187.561082
PG30  14619.079005  -7906.424265 -20702.984360   -295.406018
PG31  -4916.401680  15055.307075  21208.520526    -66.557083
PG32 -17803.590654  16453.802649  10758.844857    341.968511
PJ02 -25750.428360  23547.152257  28561.014173     -3.227081
PJ03 -34348.219066  18163.210403 -11798.285129     -0.872701
PR01   6534.318620 -20498.213511 -13694.415180     67.076554
PR02  -9020.845991  -6097.719421 -23029.608695    444.087234
PR03 -17029.667158  10144.657938 -15985.469741     21.412797
PR04 -15220.569874  20466.751772     32.889780     53.387125
PR05  -4954.254329  19184.459806  16058.691139     56.985964
PR07  17196.003697 -10643.157477  15606.592526    -39.858865
PR08  15287.683290 -20431.073943     85.544125    -54.368411
PR09      0.000000      0.000000      0.000000 999999.999999
PR11   3129.628971 -16277.055676 -19346.566632    -36.459047
PR12  -7322.310459 -23732.322393  -5819.154270    161.044677
PR13 -14030.876574 -17913.559764  11513.413908    -43.385342
PR14 -12322.107467  -1407.793596  22306.213355     55.187494
PR15  -3625.225097  15555.172953  19917.727236    106.979621
PR16   8098.377442  23564.448018   5148.034653     -6.013673
PR17 -24959.997746   -550.427612  -5346.384942    355.328867
PR18 -15089.164461   6893.972603 -19349.669754     48.191511
PR19   1872.641353  10671.541359 -23095.955046   -109.746698
PR20  20530.746094   8672.341667 -12435.913798   -420.946588
PR21  24677.867981    134.054830   6377.058927   -149.838632
PR22  14129.411516  -7191.670746  19993.489976    -71.335956
PR23  -9876.618675 -10712.850770  20927.173463    329.784640
PR24 -21018.780241  -8510.532331  11715.715863     12.092081
PR26  16728.437179   9641.798751 -16641.082345   -362.239740
EOF
